NORAD_CAT_ID,OBJECT_NAME,OBJECT_TYPE,EPOCH,MEAN_MOTION,ECCENTRICITY,INCLINATION,RA_OF_ASC_NODE,ARG_OF_PERICENTER,MEAN_ANOMALY,BSTAR,MEAN_MOTION_DOT,MEAN_MOTION_DDOT,TLE_LINE0,TLE_LINE1,TLE_LINE2,SEMIMAJOR_AXIS,PERIOD,APOGEE,PERIGEE,DECAYED
53804.0,STARLINK-4729,PAYLOAD,2023-03-26 22:21:34,15.08829377,0.0001141,53.2209,61.633,80.3199,279.7923,6.7816e-05,7.91e-06,0.0,0 STARLINK-4729,1 53804U 22111AH  23085.93165227  .00000791  00000-0  67816-4 0  9999,2 53804  53.2209  61.6330 0001141  80.3199 279.7923 15.08829377 31035,6917.913,95.438,540.567,538.989,0.0
53804.0,STARLINK-4729,PAYLOAD,2023-03-27 07:53:52,15.08846328,0.0001205,53.2188,59.8492,76.1055,284.0071,6.019e-05,6.7e-06,0.0,0 STARLINK-4729,1 53804U 22111AH  23086.32908176  .00000670  00000-0  60190-4 0  9995,2 53804  53.2188  59.8492 0001205  76.1055 284.0071 15.08846328 31098,6917.861,95.437,540.56,538.892,0.0
53804.0,STARLINK-4729,PAYLOAD,2023-03-27 22:12:21,15.08829183,0.0001131,53.2202,57.1751,75.5547,284.557,0.00013016,1.784e-05,0.0,0 STARLINK-4729,1 53804U 22111AH  23086.92524993  .00001784  00000-0  13016-3 0  9993,2 53804  53.2202  57.1751 0001131  75.5547 284.5570 15.08829183 30370,6917.913,95.438,540.561,538.996,0.0
53804.0,STARLINK-4729,PAYLOAD,2023-03-28 04:33:53,15.08845569,0.0001145,53.2198,55.9848,83.727,276.3852,3.1603e-05,2.15e-06,0.0,0 STARLINK-4729,1 53804U 22111AH  23087.19020463  .00000215  00000-0  31603-4 0  9997,2 53804  53.2198  55.9848 0001145  83.7270 276.3852 15.08845569 30419,6917.863,95.437,540.52,538.936,0.0
53804.0,STARLINK-4729,PAYLOAD,2023-03-28 22:03:08,15.08832678,0.0001112,53.2193,52.7135,79.0693,281.0424,-1.0213e-05,-4.5e-06,0.0,0 STARLINK-4729,1 53804U 22111AH  23087.91885314 -.00000450  00000-0 -10213-4 0  9998,2 53804  53.2193  52.7135 0001112  79.0693 281.0424 15.08832678 30526,6917.903,95.438,540.537,538.998,0.0
53804.0,STARLINK-4729,PAYLOAD,2023-03-29 07:35:26,15.0884865,0.0001167,53.2198,50.9293,78.4012,281.7111,-1.2065e-05,-4.8e-06,0.0,0 STARLINK-4729,1 53804U 22111AH  23088.31628282 -.00000480  00000-0 -12065-4 0  9992,2 53804  53.2198  50.9293 0001167  78.4012 281.7111 15.08848650 30587,6917.854,95.437,540.526,538.912,0.0
53804.0,STARLINK-4729,PAYLOAD,2023-03-30 07:26:13,15.08852957,9.26e-05,53.2197,46.4696,98.872,261.2377,3.8801e-05,3.3e-06,0.0,0 STARLINK-4729,1 53804U 22111AH  23089.30987969  .00000330  00000-0  38801-4 0  9990,2 53804  53.2197  46.4696 0000926  98.8720 261.2377 15.08852957 31546,6917.841,95.437,540.346,539.065,0.0
53804.0,STARLINK-4729,PAYLOAD,2023-03-31 05:41:37,15.08853729,0.000103,53.2198,42.306,103.3659,256.7448,7.4551e-05,8.99e-06,0.0,0 STARLINK-4729,1 53804U 22111AH  23090.23723929  .00000899  00000-0  74551-4 0  9990,2 53804  53.2198  42.3060 0001030 103.3659 256.7448 15.08853729 30878,6917.838,95.437,540.416,538.991,0.0
53804.0,STARLINK-4729,PAYLOAD,2023-03-31 20:00:07,15.08827156,0.0001083,53.2208,39.6294,112.0404,248.0703,4.4184e-05,4.15e-06,0.0,0 STARLINK-4729,1 53804U 22111AH  23090.83341704  .00000415  00000-0  44184-4 0  9996,2 53804  53.2208  39.6294 0001083 112.0404 248.0703 15.08827156 30964,6917.92,95.438,540.534,539.035,0.0
53804.0,STARLINK-4729,PAYLOAD,2023-04-01 05:32:25,15.08841448,0.0001164,53.2197,37.8451,114.207,245.9043,-9.5182e-05,-1.802e-05,0.0,0 STARLINK-4729,1 53804U 22111AH  23091.23085593 -.00001802  00000-0 -95182-4 0  9999,2 53804  53.2197  37.8451 0001164 114.2070 245.9043 15.08841448 31020,6917.876,95.437,540.546,538.936,0.0
53804.0,STARLINK-4729,PAYLOAD,2023-04-02 05:23:13,15.08842576,0.0001104,53.2199,33.386,104.3438,255.7677,-7.2892e-05,-1.448e-05,0.0,0 STARLINK-4729,1 53804U 22111AH  23092.22446118 -.00001448  00000-0 -72892-4 0  9992,2 53804  53.2199  33.3860 0001104 104.3438 255.7677 15.08842576 31989,6917.873,95.437,540.501,538.974,0.0
53804.0,STARLINK-4729,PAYLOAD,2023-04-02 19:41:41,15.08832873,0.0001064,53.2199,30.7096,79.373,280.7382,4.3208e-05,4e-06,0.0,0 STARLINK-4729,1 53804U 22111AH  23092.82062460  .00000400  00000-0  43208-4 0  9996,2 53804  53.2199  30.7096 0001064  79.3730 280.7382 15.08832873 31263,6917.902,95.438,540.503,539.031,0.0
53804.0,STARLINK-4729,PAYLOAD,2023-04-03 02:03:14,15.08836058,8.98e-05,53.2192,29.5213,80.9217,279.1877,9.7998e-05,1.272e-05,0.0,0 STARLINK-4729,1 53804U 22111AH  23093.08557963  .00001272  00000-0  97998-4 0  9995,2 53804  53.2192  29.5213 0000898  80.9217 279.1877 15.08836058 32110,6917.892,95.438,540.379,539.136,0.0
53804.0,STARLINK-4729,PAYLOAD,2023-04-03 19:32:30,15.08820598,0.0001201,53.2197,26.2507,68.9231,291.189,-0.00015988,-2.83e-05,0.0,0 STARLINK-4729,1 53804U 22111AH  23093.81424610 -.00002830  00000-0 -15988-3 0  9999,2 53804  53.2197  26.2507 0001201  68.9231 291.1890 15.08820598 31419,6917.94,95.439,540.636,538.974,0.0
53804.0,STARLINK-4729,PAYLOAD,2023-04-04 05:04:49,15.08824347,0.0001072,53.2195,24.4663,75.8647,284.2465,-0.00011743,-2.155e-05,0.0,0 STARLINK-4729,1 53804U 22111AH  23094.21168467 -.00002155  00000-0 -11743-3 0  9994,2 53804  53.2195  24.4663 0001072  75.8647 284.2465 15.08824347 31477,6917.928,95.439,540.535,539.052,0.0
53804.0,STARLINK-4729,PAYLOAD,2023-04-04 19:23:16,15.08840075,0.0001131,53.2193,21.7915,67.156,292.9552,1.2625e-05,-8.7e-07,0.0,0 STARLINK-4729,1 53804U 22111AH  23094.80783248 -.00000087  00000-0  12625-4 0  9991,2 53804  53.2193  21.7915 0001131  67.1560 292.9552 15.08840075 31568,6917.88,95.438,540.528,538.963,0.0
53804.0,STARLINK-4729,PAYLOAD,2023-04-05 04:55:34,15.08857772,0.0001216,53.2185,20.0028,98.355,261.758,6.7957e-05,7.94e-06,0.0,0 STARLINK-4729,1 53804U 22111AH  23095.20525606  .00000794  00000-0  67957-4 0  9990,2 53804  53.2185  20.0028 0001216  98.3550 261.7580 15.08857772 31629,6917.826,95.436,540.532,538.85,0.0
53804.0,STARLINK-4729,PAYLOAD,2023-04-05 22:24:49,15.08846014,0.0001198,53.2179,16.731,98.196,261.9168,7.1478e-05,8.5e-06,0.0,0 STARLINK-4729,1 53804U 22111AH  23095.93390307  .00000850  00000-0  71478-4 0  9994,2 53804  53.2179  16.7310 0001198  98.1960 261.9168 15.08846014 31733,6917.862,95.437,540.556,538.898,0.0
53804.0,STARLINK-4729,PAYLOAD,2023-04-06 04:46:20,15.08851049,0.0001097,53.2185,15.5455,82.515,277.5967,0.00021768,3.179e-05,0.0,0 STARLINK-4729,1 53804U 22111AH  23096.19885352  .00003179  00000-0  21768-3 0  9995,2 53804  53.2185  15.5455 0001097  82.5150 277.5967 15.08851049 31771,6917.847,95.437,540.471,538.953,0.0
53804.0,STARLINK-4729,PAYLOAD,2023-04-06 19:04:50,15.08845698,0.0001326,53.2175,12.8676,92.0213,268.0931,-0.00012377,-2.257e-05,0.0,0 STARLINK-4729,1 53804U 22111AH  23096.79502870 -.00002257  00000-0 -12377-3 0  9996,2 53804  53.2175  12.8676 0001326  92.0213 268.0931 15.08845698 31865,6917.863,95.437,540.645,538.811,0.0
53804.0,STARLINK-4729,PAYLOAD,2023-04-07 03:01:45,15.08845821,0.0001141,53.218,11.3814,83.702,276.4102,-0.00010204,-1.912e-05,0.0,0 STARLINK-4729,1 53804U 22111AH  23097.12622615 -.00001912  00000-0 -10204-3 0  9998,2 53804  53.2180  11.3814 0001141  83.7020 276.4102 15.08845821 32724,6917.863,95.437,540.517,538.938,0.0
53804.0,STARLINK-4729,PAYLOAD,2023-04-08 04:27:54,15.08858034,0.0001175,53.2191,6.6241,90.5813,269.5313,-3.2459e-05,-8.05e-06,0.0,0 STARLINK-4729,1 53804U 22111AH  23098.18605188 -.00000805  00000-0 -32459-4 0  9998,2 53804  53.2191   6.6241 0001175  90.5813 269.5313 15.08858034 32075,6917.825,95.436,540.503,538.877,0.0
53804.0,STARLINK-4729,PAYLOAD,2023-04-08 18:46:25,15.08825085,0.0001092,53.2181,3.9493,77.6098,282.5016,-1.1803e-05,-4.76e-06,0.0,0 STARLINK-4729,1 53804U 22111AH  23098.78223440 -.00000476  00000-0 -11803-4 0  9995,2 53804  53.2181   3.9493 0001092  77.6098 282.5016 15.08825085 32167,6917.926,95.438,540.546,539.036,0.0
53804.0,STARLINK-4729,PAYLOAD,2023-04-09 02:43:20,15.08830588,0.0001429,53.2187,2.4618,77.0218,283.0934,-1.0088e-05,-4.48e-06,0.0,0 STARLINK-4729,1 53804U 22111AH  23099.11343380 -.00000448  00000-0 -10088-4 0  9992,2 53804  53.2187   2.4618 0001429  77.0218 283.0934 15.08830588 33023,6917.909,95.438,540.763,538.786,0.0
53804.0,STARLINK-4729,PAYLOAD,2023-04-09 17:01:48,15.08833055,0.000134,53.2184,359.7849,85.5606,274.5539,-2.2098e-06,-3.23e-06,0.0,0 STARLINK-4729,1 53804U 22111AH  23099.70959368 -.00000323  00000-0 -22098-5 0  9993,2 53804  53.2184 359.7849 0001340  85.5606 274.5539 15.08833055 33119,6917.902,95.438,540.694,538.84,0.0
53804.0,STARLINK-4729,PAYLOAD,2023-04-09 23:23:20,15.08845662,0.0001208,53.2177,358.5975,84.7719,275.3411,-2.2206e-05,-6.41e-06,0.0,0 STARLINK-4729,1 53804U 22111AH  23099.97454598 -.00000641  00000-0 -22206-4 0  9990,2 53804  53.2177 358.5975 0001208  84.7719 275.3411 15.08845662 32346,6917.863,95.437,540.564,538.892,0.0
53804.0,STARLINK-4729,PAYLOAD,2023-04-10 02:34:06,15.08848325,0.0001189,53.2175,358.0019,87.0883,273.0245,2.6249e-06,-2.46e-06,0.0,0 STARLINK-4729,1 53804U 22111AH  23100.10702290 -.00000246  00000-0  26249-5 0  9995,2 53804  53.2175 358.0019 0001189  87.0883 273.0245 15.08848325 33175,6917.855,95.437,540.542,538.897,0.0
53804.0,STARLINK-4729,PAYLOAD,2023-04-10 16:52:35,15.08840467,0.0001776,53.2174,355.3264,93.6407,266.4788,7.7885e-05,9.52e-06,0.0,0 STARLINK-4729,1 53804U 22111AH  23100.70318486  .00000952  00000-0  77885-4 0  9995,2 53804  53.2174 355.3264 0001776  93.6407 266.4788 15.08840467 33260,6917.879,95.438,540.973,538.515,0.0
53804.0,STARLINK-4729,PAYLOAD,2023-04-11 02:24:52,15.08852299,0.000127,53.2182,353.541,89.6063,270.5075,0.00014749,2.061e-05,0.0,0 STARLINK-4729,1 53804U 22111AH  23101.10061306  .00002061  00000-0  14749-3 0  9998,2 53804  53.2182 353.5410 0001270  89.6063 270.5075 15.08852299 32512,6917.843,95.437,540.586,538.829,0.0
53804.0,STARLINK-4729,PAYLOAD,2023-04-11 21:29:32,15.08833412,0.0001263,53.2181,349.9735,90.7391,269.3745,-0.00012001,-2.197e-05,0.0,0 STARLINK-4729,1 53804U 22111AH  23101.89551634 -.00002197  00000-0 -12001-3 0  9993,2 53804  53.2181 349.9735 0001263  90.7391 269.3745 15.08833412 33448,6917.901,95.438,540.639,538.892,0.0
